{
  "type": "FeatureCollection",
  "name": "german-denmark-1914-north-schleswig-001-026-0718-east-stage2-provisional",
  "features": [
    {
      "type": "Feature",
      "id": "land-border:deu-dnk:1914:north-schleswig:0718-east-stage2",
      "properties": {
        "referenceDate": "1914-07-31",
        "sheet": "0718 Hvidding",
        "publicationYear": 1880,
        "status": "provisional-modern-parish-only",
        "doNotTreatAsFinal": true,
        "historicalMapTraced": false,
        "lengthKm": 5.94054,
        "source": "german-denmark-1914-north-schleswig-001-026.sheet-segments.geojson"
      },
      "geometry": {
        "type": "LineString",
        "coordinates": [
          [
            8.750261798203894,
            55.27444861174032
          ],
          [
            8.752037336068978,
            55.27421643277873
          ],
          [
            8.754292892099459,
            55.27392410948608
          ],
          [
            8.756999919646482,
            55.273573213725705
          ],
          [
            8.76313871621907,
            55.27274318201904
          ],
          [
            8.763149768072699,
            55.272741687511086
          ],
          [
            8.76320510257187,
            55.27280622476209
          ],
          [
            8.763499967246544,
            55.273107894261365
          ],
          [
            8.76432950372151,
            55.27395654669113
          ],
          [
            8.764356552792016,
            55.27398452661101
          ],
          [
            8.764379722096344,
            55.274008493061174
          ],
          [
            8.764384517907065,
            55.274049209082555
          ],
          [
            8.765120992992047,
            55.274797457757764
          ],
          [
            8.765442048834949,
            55.2751235186916
          ],
          [
            8.766075934772784,
            55.27576726698277
          ],
          [
            8.76621580566411,
            55.2759123897831
          ],
          [
            8.767414228842663,
            55.27715562752429
          ],
          [
            8.767493309831236,
            55.277237663373484
          ],
          [
            8.768778955522892,
            55.278558086183644
          ],
          [
            8.768850579246712,
            55.278612677141766
          ],
          [
            8.768866662102395,
            55.278628795279104
          ],
          [
            8.769184415498088,
            55.278947229585135
          ],
          [
            8.76918364579976,
            55.27894802788728
          ],
          [
            8.769179955696831,
            55.278951852556986
          ],
          [
            8.769135167597389,
            55.278998276005325
          ],
          [
            8.769135002890224,
            55.27899844642855
          ],
          [
            8.769485864911289,
            55.27901785140208
          ],
          [
            8.769644728008778,
            55.27902663668556
          ],
          [
            8.769645140235678,
            55.2790266743059
          ],
          [
            8.771596529366418,
            55.279203283963625
          ],
          [
            8.772910585568713,
            55.279332078244344
          ],
          [
            8.773314051987667,
            55.27938161482063
          ],
          [
            8.773667103628307,
            55.279424960511065
          ],
          [
            8.77427290638547,
            55.27947370776149
          ],
          [
            8.774623473038467,
            55.27950418887804
          ],
          [
            8.774800477666759,
            55.27951517555005
          ],
          [
            8.77518449108629,
            55.279539010455046
          ],
          [
            8.776043700806131,
            55.279624428868615
          ],
          [
            8.776926913254272,
            55.279725341052014
          ],
          [
            8.777783440525479,
            55.27981325840337
          ],
          [
            8.778247942545876,
            55.279851968991615
          ],
          [
            8.778596949067165,
            55.27988105291052
          ],
          [
            8.778915629088972,
            55.279900051624594
          ],
          [
            8.779159528244243,
            55.27991981289881
          ],
          [
            8.779163672159031,
            55.27992000909921
          ],
          [
            8.77992221096159,
            55.27995587582538
          ],
          [
            8.7817937617974,
            55.28014236957078
          ],
          [
            8.783342787609929,
            55.280283815244346
          ],
          [
            8.7844774718529,
            55.28038741279555
          ],
          [
            8.785019560811179,
            55.28043690182793
          ],
          [
            8.786174178610795,
            55.28054532352148
          ],
          [
            8.786682421157497,
            55.28059168166427
          ],
          [
            8.786746709732402,
            55.28059788737023
          ],
          [
            8.78746647943565,
            55.28066736316591
          ],
          [
            8.789264564622691,
            55.28085666970272
          ],
          [
            8.789427466753137,
            55.28086360036215
          ],
          [
            8.789549761221489,
            55.28086884334732
          ],
          [
            8.792295049916872,
            55.28111394027241
          ],
          [
            8.793986895024577,
            55.28126495505048
          ],
          [
            8.793997274339436,
            55.28126588104652
          ],
          [
            8.794023630059204,
            55.28126004594647
          ],
          [
            8.794271201945923,
            55.28120523785258
          ],
          [
            8.794860472892681,
            55.28109248762852
          ],
          [
            8.795136188278592,
            55.28103973163303
          ],
          [
            8.797389386322552,
            55.28050100438991
          ],
          [
            8.798487673918876,
            55.280299827326424
          ],
          [
            8.799744761334024,
            55.28004237879815
          ],
          [
            8.799879514985072,
            55.28001159791011
          ],
          [
            8.80104883988547,
            55.27976594352379
          ],
          [
            8.80142075140865,
            55.2796878312781
          ],
          [
            8.801996108626888,
            55.2795669150151
          ],
          [
            8.802469601901631,
            55.27944753866131
          ],
          [
            8.804678932643625,
            55.27895551302954
          ],
          [
            8.805676957419166,
            55.27873515040283
          ],
          [
            8.806795682694888,
            55.27848837200615
          ],
          [
            8.80856076350766,
            55.27804328828482
          ],
          [
            8.808578729728218,
            55.27803900315604
          ],
          [
            8.809275592832604,
            55.27786972744749
          ],
          [
            8.810359925325141,
            55.2776063194053
          ],
          [
            8.811998222455301,
            55.27719163139375
          ],
          [
            8.81326032996258,
            55.2768981972356
          ],
          [
            8.814305409125684,
            55.276625357643184
          ],
          [
            8.816397912454573,
            55.27610796113697
          ],
          [
            8.818639319464006,
            55.275579517478604
          ],
          [
            8.820817425128912,
            55.27504321182376
          ],
          [
            8.821308724881936,
            55.27492989904852
          ],
          [
            8.823484620437045,
            55.274378895353905
          ],
          [
            8.823569745072794,
            55.27438575789696
          ],
          [
            8.823640708724552,
            55.27439143174556
          ],
          [
            8.824921736320196,
            55.274086761706364
          ],
          [
            8.82644559941713,
            55.273713141322446
          ],
          [
            8.827613938530241,
            55.27343263496208
          ],
          [
            8.829194330888866,
            55.273041806885765
          ],
          [
            8.829320232371312,
            55.27300900420126
          ],
          [
            8.830092285459687,
            55.272819030722694
          ],
          [
            8.831061452220636,
            55.2725805454634
          ],
          [
            8.83153472895656,
            55.27247201906239
          ],
          [
            8.832376190896303,
            55.27227907882012
          ],
          [
            8.833333333333332,
            55.27205685739951
          ]
        ]
      }
    }
  ]
}
