{
  "type": "FeatureCollection",
  "name": "Spandet→Hügum continued Gels Å 0619 candidate, provisional",
  "features": [
    {
      "type": "Feature",
      "id": "candidate:1914:german-denmark:post26-gelsa:0619",
      "properties": {
        "referenceDate": "1914-07-31",
        "sourceSheet": "0619 Hügum",
        "historicalSourceYear": 1878,
        "source": "Working modern parish/river boundary, sheet segment",
        "status": "overlay-prepared-not-yet-reviewed",
        "doNotTreatAsFinal": true,
        "independentlyDigitizedHistoricCourse": false,
        "lengthKm": 5.99299
      },
      "geometry": {
        "type": "LineString",
        "coordinates": [
          [
            8.926995045276211,
            55.29999999999999
          ],
          [
            8.926891421423376,
            55.30008389989039
          ],
          [
            8.926758022878175,
            55.30016514308549
          ],
          [
            8.926608826008765,
            55.30027198668198
          ],
          [
            8.926420099257497,
            55.30037620035603
          ],
          [
            8.926283766300743,
            55.30042500188072
          ],
          [
            8.926174392057437,
            55.30046007100225
          ],
          [
            8.926055123652374,
            55.30047958829434
          ],
          [
            8.925945170583017,
            55.30048698004711
          ],
          [
            8.925897648315802,
            55.30046304852549
          ],
          [
            8.925869201567373,
            55.3004298730054
          ],
          [
            8.925844698281296,
            55.300418094588416
          ],
          [
            8.925815854889095,
            55.300404230581044
          ],
          [
            8.925744693534142,
            55.300387473423804
          ],
          [
            8.925673183967188,
            55.300388508250435
          ],
          [
            8.925520201568228,
            55.300412138051826
          ],
          [
            8.92531820244258,
            55.30045290092224
          ],
          [
            8.925178422861123,
            55.300491005791784
          ],
          [
            8.925101637019276,
            55.30053364213124
          ],
          [
            8.925024292750809,
            55.30062174712884
          ],
          [
            8.924930157395822,
            55.30076016323493
          ],
          [
            8.924888076997133,
            55.30085727578744
          ],
          [
            8.924887776549546,
            55.300932937535
          ],
          [
            8.924934730050746,
            55.30100781959103
          ],
          [
            8.92498879008476,
            55.30107291127674
          ],
          [
            8.925083749700924,
            55.30116606427726
          ],
          [
            8.925181912364435,
            55.30123136263504
          ],
          [
            8.92526374861341,
            55.30126780593892
          ],
          [
            8.925276106510568,
            55.30127298403034
          ],
          [
            8.925371557677488,
            55.301312981455915
          ],
          [
            8.925434506113639,
            55.3013424939018
          ],
          [
            8.925486417861691,
            55.30137793032806
          ],
          [
            8.925527931370112,
            55.30141479814937
          ],
          [
            8.925595091983567,
            55.30146614900354
          ],
          [
            8.925626541683961,
            55.30149411454344
          ],
          [
            8.925637991005543,
            55.30152027070611
          ],
          [
            8.925652100539644,
            55.30155577390253
          ],
          [
            8.925658652120681,
            55.30158992460117
          ],
          [
            8.925667847454871,
            55.30164222858068
          ],
          [
            8.925681302659637,
            55.30169076104067
          ],
          [
            8.925712858898667,
            55.30174613385015
          ],
          [
            8.925763447069228,
            55.30181598564041
          ],
          [
            8.925804277582788,
            55.30188160807373
          ],
          [
            8.925832053862159,
            55.30193697855456
          ],
          [
            8.925831553331628,
            55.301951984830744
          ],
          [
            8.92581782264137,
            55.30196653377442
          ],
          [
            8.925782179330096,
            55.30199095397869
          ],
          [
            8.925708242743333,
            55.30202487602407
          ],
          [
            8.925627564606518,
            55.30204190028544
          ],
          [
            8.925531925430848,
            55.30205747761778
          ],
          [
            8.92544118490229,
            55.302064611047896
          ],
          [
            8.925253115430335,
            55.30206440625338
          ],
          [
            8.925137058505307,
            55.302048609725155
          ],
          [
            8.925081631018823,
            55.30204216424998
          ],
          [
            8.92500965893444,
            55.302033794581305
          ],
          [
            8.9248945620368,
            55.30201018061277
          ],
          [
            8.924800759813346,
            55.30197049474929
          ],
          [
            8.924723668312351,
            55.301923270892345
          ],
          [
            8.92465410365796,
            55.301893933721914
          ],
          [
            8.92460796963375,
            55.30188500914103
          ],
          [
            8.924551430661873,
            55.30188093054375
          ],
          [
            8.924424641565876,
            55.30187680847804
          ],
          [
            8.92428791044819,
            55.30188256469289
          ],
          [
            8.924171491083927,
            55.301892107475105
          ],
          [
            8.924018495481821,
            55.301919150054836
          ],
          [
            8.923814914280717,
            55.30195874127121
          ],
          [
            8.92360170907463,
            55.302006323648264
          ],
          [
            8.923513143751771,
            55.302028912885675
          ],
          [
            8.923468060172443,
            55.30204712618011
          ],
          [
            8.923421357465754,
            55.30208816282203
          ],
          [
            8.923361322450791,
            55.30218166918169
          ],
          [
            8.923278345964123,
            55.30232790878157
          ],
          [
            8.923218138679388,
            55.30242869359941
          ],
          [
            8.923113030708853,
            55.302534032980574
          ],
          [
            8.923031595288665,
            55.302615664212794
          ],
          [
            8.92298452473347,
            55.302683388798876
          ],
          [
            8.922954308294127,
            55.30275103413764
          ],
          [
            8.922975789481121,
            55.30280181844331
          ],
          [
            8.923029893107291,
            55.30284399676833
          ],
          [
            8.923180310911652,
            55.30293044667149
          ],
          [
            8.923293675045949,
            55.30295495976059
          ],
          [
            8.92337589949682,
            55.30295438234604
          ],
          [
            8.923487780146765,
            55.302931358517796
          ],
          [
            8.923574030711029,
            55.302884865160244
          ],
          [
            8.923688345881173,
            55.30282428129607
          ],
          [
            8.92379206154958,
            55.30278750354615
          ],
          [
            8.923911613880431,
            55.302753048563254
          ],
          [
            8.923924289815984,
            55.302749395571944
          ],
          [
            8.924020243395473,
            55.3027353473106
          ],
          [
            8.924183603670716,
            55.3027263729744
          ],
          [
            8.924357476846438,
            55.302738701690934
          ],
          [
            8.924485952533203,
            55.30276852475602
          ],
          [
            8.92456604329436,
            55.30281305481564
          ],
          [
            8.92459051527626,
            55.30286599731694
          ],
          [
            8.924590258048879,
            55.302918565110595
          ],
          [
            8.924533440689885,
            55.302977388157224
          ],
          [
            8.92435948337645,
            55.3030914923024
          ],
          [
            8.924239748680812,
            55.30318577083482
          ],
          [
            8.924132019011976,
            55.30326208475663
          ],
          [
            8.924071131808969,
            55.30330688693785
          ],
          [
            8.923988854064843,
            55.30333496186837
          ],
          [
            8.923956228047212,
            55.30334536529286
          ],
          [
            8.923792379189324,
            55.30336134807994
          ],
          [
            8.92366683385795,
            55.30336333646845
          ],
          [
            8.92366315634081,
            55.3033630663884
          ],
          [
            8.923486659200963,
            55.303350104226816
          ],
          [
            8.923362862171283,
            55.303344006021206
          ],
          [
            8.923223143611049,
            55.303344277726055
          ],
          [
            8.92312672771778,
            55.303352124747285
          ],
          [
            8.92306902645955,
            55.30337787816844
          ],
          [
            8.923023263924355,
            55.30342044285751
          ],
          [
            8.922993722838983,
            55.303464455511836
          ],
          [
            8.923002563339633,
            55.303535719858154
          ],
          [
            8.923040445873985,
            55.30357671977108
          ],
          [
            8.923089989194704,
            55.30361548052059
          ],
          [
            8.92309595630122,
            55.303630795478064
          ],
          [
            8.923099550363611,
            55.303640018248316
          ],
          [
            8.923085170978265,
            55.30366337272723
          ],
          [
            8.92307649511082,
            55.30366974730563
          ],
          [
            8.922924153033449,
            55.30376202708961
          ],
          [
            8.922778992526135,
            55.30380596668485
          ],
          [
            8.92267155817203,
            55.3038091336747
          ],
          [
            8.92258812824776,
            55.30379689495481
          ],
          [
            8.922552822508692,
            55.30379171552619
          ],
          [
            8.922405496010027,
            55.30373456110113
          ],
          [
            8.922244198230082,
            55.303653135476345
          ],
          [
            8.922073262026933,
            55.30358724922401
          ],
          [
            8.921968984394638,
            55.30358745223818
          ],
          [
            8.921832678604229,
            55.30361405343651
          ],
          [
            8.921712083072615,
            55.30366169173083
          ],
          [
            8.921652591782225,
            55.30371583901205
          ],
          [
            8.921600610559594,
            55.30379569096866
          ],
          [
            8.921573435904975,
            55.30383691914431
          ],
          [
            8.921549576549795,
            55.30387437533391
          ],
          [
            8.921454367039036,
            55.303988346156366
          ],
          [
            8.92140389918365,
            55.30402977677437
          ],
          [
            8.921372007836801,
            55.30405595755252
          ],
          [
            8.921231824350693,
            55.30412106497135
          ],
          [
            8.921218599350594,
            55.304127207341786
          ],
          [
            8.921006423486903,
            55.304204259832744
          ],
          [
            8.920769410952799,
            55.30425496694736
          ],
          [
            8.920654498746206,
            55.30429470022345
          ],
          [
            8.920519816387124,
            55.30437431824954
          ],
          [
            8.920448825666082,
            55.304427289280234
          ],
          [
            8.920431242205265,
            55.304476520959284
          ],
          [
            8.920463387468622,
            55.304549867430005
          ],
          [
            8.920484293760888,
            55.304650703652094
          ],
          [
            8.920486407484622,
            55.30477525060516
          ],
          [
            8.920453227870661,
            55.30490381826635
          ],
          [
            8.920453271213415,
            55.304960879217155
          ],
          [
            8.920497082131575,
            55.305030009861945
          ],
          [
            8.920627292209758,
            55.305140172689114
          ],
          [
            8.920727375428207,
            55.30519154757469
          ],
          [
            8.920844478208362,
            55.30523960859747
          ],
          [
            8.92104619255195,
            55.30527748021467
          ],
          [
            8.921088630944459,
            55.30528882456818
          ],
          [
            8.92126960250114,
            55.30533720139329
          ],
          [
            8.921367833001572,
            55.30537024317647
          ],
          [
            8.92142930144065,
            55.305433004806446
          ],
          [
            8.92143165419188,
            55.30551783388765
          ],
          [
            8.921416883308824,
            55.305579018849805
          ],
          [
            8.9213498056098,
            55.30564421383148
          ],
          [
            8.921232635093865,
            55.30570892718849
          ],
          [
            8.920921518717192,
            55.30586768801317
          ],
          [
            8.920638361955628,
            55.30598656850033
          ],
          [
            8.92044594050381,
            55.30602643091213
          ],
          [
            8.920300599309924,
            55.30606699949024
          ],
          [
            8.920207624417985,
            55.30609295138443
          ],
          [
            8.920044132291915,
            55.30616014940492
          ],
          [
            8.920022379256116,
            55.30618045693722
          ],
          [
            8.919928130570884,
            55.306268444226674
          ],
          [
            8.919875913467672,
            55.30638378984496
          ],
          [
            8.919813132681409,
            55.3065035316305
          ],
          [
            8.919776978374136,
            55.30654313602031
          ],
          [
            8.919711219762254,
            55.306577059785155
          ],
          [
            8.919647373380302,
            55.30660011174895
          ],
          [
            8.919568901515785,
            55.30661084327247
          ],
          [
            8.919485728271496,
            55.30660944058807
          ],
          [
            8.919431890445674,
            55.30659089399563
          ],
          [
            8.919362206660416,
            55.306540526587845
          ],
          [
            8.919273621486042,
            55.30648915819441
          ],
          [
            8.919224366708821,
            55.306463515622276
          ],
          [
            8.919172744483701,
            55.30644011795625
          ],
          [
            8.919113145950694,
            55.306418583170455
          ],
          [
            8.918990616631179,
            55.306374309877405
          ],
          [
            8.918815529004906,
            55.30633258860498
          ],
          [
            8.918735349607344,
            55.306331097539285
          ],
          [
            8.918584273454195,
            55.30633378259804
          ],
          [
            8.918442323463326,
            55.30634159556606
          ],
          [
            8.918339111942998,
            55.30635608388837
          ],
          [
            8.918250524884783,
            55.306383072409226
          ],
          [
            8.91818663543059,
            55.30642679131277
          ],
          [
            8.918157070472754,
            55.30647871041585
          ],
          [
            8.918140277945584,
            55.30652452761111
          ],
          [
            8.918100099831662,
            55.30660483525194
          ],
          [
            8.918014215642499,
            55.30669580551678
          ],
          [
            8.91793501284747,
            55.3067550597361
          ],
          [
            8.917850631162297,
            55.306804695433755
          ],
          [
            8.917828804676708,
            55.306817908101536
          ],
          [
            8.917731861339641,
            55.30687659312382
          ],
          [
            8.917605050829735,
            55.30695145064471
          ],
          [
            8.917487048944066,
            55.30703242444219
          ],
          [
            8.9173971536071,
            55.307081516942404
          ],
          [
            8.91728426581108,
            55.3071269994227
          ],
          [
            8.917225802431563,
            55.30713603565254
          ],
          [
            8.917179323467668,
            55.30713932895963
          ],
          [
            8.917108440848171,
            55.307135956075754
          ],
          [
            8.917046392239632,
            55.30712674826983
          ],
          [
            8.916987358166146,
            55.30710729847603
          ],
          [
            8.916955433006795,
            55.30708148704668
          ],
          [
            8.916909066224173,
            55.307031134091105
          ],
          [
            8.91679780273334,
            55.30678960446639
          ],
          [
            8.916774201563866,
            55.30673836926164
          ],
          [
            8.916729522880395,
            55.30670967357195
          ],
          [
            8.916667658929203,
            55.306687885340935
          ],
          [
            8.916601842078915,
            55.306673103436445
          ],
          [
            8.916527807088794,
            55.306670986098815
          ],
          [
            8.916449187290723,
            55.30667668337443
          ],
          [
            8.916311164462131,
            55.30668898953696
          ],
          [
            8.916093831009448,
            55.306735657359994
          ],
          [
            8.915992954176582,
            55.30676263580122
          ],
          [
            8.915915864190069,
            55.30678972039344
          ],
          [
            8.915836847766542,
            55.306833787092344
          ],
          [
            8.915741898411502,
            55.30688826647639
          ],
          [
            8.915673249131231,
            55.30694626847151
          ],
          [
            8.915605050877893,
            55.307014335024874
          ],
          [
            8.915543941460447,
            55.307069743412534
          ],
          [
            8.91553860185562,
            55.307074584955586
          ],
          [
            8.915489207197453,
            55.30711552681497
          ],
          [
            8.9154360421742,
            55.307151523761235
          ],
          [
            8.915301395594065,
            55.307204896998634
          ],
          [
            8.915209827179979,
            55.30722451275046
          ],
          [
            8.915098403215659,
            55.3072470800058
          ],
          [
            8.915020223358532,
            55.307267423797015
          ],
          [
            8.914964750268917,
            55.3072774494815
          ],
          [
            8.914808644816356,
            55.3072728477362
          ],
          [
            8.914583843143733,
            55.307200443571645
          ],
          [
            8.914482030346072,
            55.307148882738744
          ],
          [
            8.914395211041592,
            55.30708448239178
          ],
          [
            8.914315498385054,
            55.30701199959452
          ],
          [
            8.914313218461787,
            55.3070092779424
          ],
          [
            8.914264117662327,
            55.306950679233566
          ],
          [
            8.91422451665742,
            55.30690572158663
          ],
          [
            8.914172932697776,
            55.30686569779169
          ],
          [
            8.91414019686646,
            55.30685147695623
          ],
          [
            8.914098614458892,
            55.306848751932975
          ],
          [
            8.914052921286107,
            55.30685294320018
          ],
          [
            8.913990498685976,
            55.30687150022463
          ],
          [
            8.91389098277604,
            55.30692390818245
          ],
          [
            8.913817146021017,
            55.30697552544024
          ],
          [
            8.91375449695733,
            55.30702571279674
          ],
          [
            8.91373220714977,
            55.30706155107664
          ],
          [
            8.913731819342768,
            55.30709506846875
          ],
          [
            8.913744985746183,
            55.30712563006161
          ],
          [
            8.91378817732123,
            55.30718550710543
          ],
          [
            8.913851949727814,
            55.30727127823942
          ],
          [
            8.913877324028926,
            55.30733869089841
          ],
          [
            8.913897617055346,
            55.30742470092573
          ],
          [
            8.913908208648174,
            55.307476064100946
          ],
          [
            8.913910868246466,
            55.307488959941836
          ],
          [
            8.913936595209943,
            55.307539119774574
          ],
          [
            8.913973668583804,
            55.30758749039824
          ],
          [
            8.913996093108258,
            55.30763504196114
          ],
          [
            8.914013023807303,
            55.30767342396485
          ],
          [
            8.91401374363794,
            55.30770478550158
          ],
          [
            8.913998366739637,
            55.307749165361564
          ],
          [
            8.913976852557141,
            55.307790485668626
          ],
          [
            8.91393801881096,
            55.30782748050692
          ],
          [
            8.91385647153116,
            55.30787432978612
          ],
          [
            8.91371753083913,
            55.30794432228622
          ],
          [
            8.913580982976935,
            55.308000388069836
          ],
          [
            8.913450758278026,
            55.30804630403651
          ],
          [
            8.913332531297165,
            55.30808063647757
          ],
          [
            8.913198391975733,
            55.30811540679741
          ],
          [
            8.913082244965945,
            55.308134913626844
          ],
          [
            8.912955557862679,
            55.30814758350072
          ],
          [
            8.912815647478858,
            55.30815575082309
          ],
          [
            8.912674133880524,
            55.30815648993676
          ],
          [
            8.91257351094712,
            55.30815701553522
          ],
          [
            8.912495343835213,
            55.30817016894351
          ],
          [
            8.912418565789967,
            55.30819635295105
          ],
          [
            8.91230773138553,
            55.308235362402854
          ],
          [
            8.912119490159672,
            55.30829965652449
          ],
          [
            8.911947023541343,
            55.308354256881366
          ],
          [
            8.91184172794871,
            55.30838158814383
          ],
          [
            8.911625669469528,
            55.30841512941752
          ],
          [
            8.911563563956447,
            55.30843116935683
          ],
          [
            8.911477000655337,
            55.308464893900705
          ],
          [
            8.911359346369512,
            55.3085236666775
          ],
          [
            8.911215206678778,
            55.3085907770447
          ],
          [
            8.911113152546946,
            55.308647494147486
          ],
          [
            8.911047990894216,
            55.30869138809921
          ],
          [
            8.910990377268542,
            55.30874139797329
          ],
          [
            8.910933509711914,
            55.30880991945605
          ],
          [
            8.91083796946375,
            55.30891202020933
          ],
          [
            8.910747197493096,
            55.30899516398009
          ],
          [
            8.91070138985723,
            55.30904904630607
          ],
          [
            8.91067513726362,
            55.30909395694739
          ],
          [
            8.91065186979516,
            55.30914246415268
          ],
          [
            8.910646106834326,
            55.30918316636642
          ],
          [
            8.910659727002011,
            55.309291457223694
          ],
          [
            8.910697604763442,
            55.309401473145385
          ],
          [
            8.910729369370317,
            55.309427645522376
          ],
          [
            8.910745249570656,
            55.309441675232605
          ],
          [
            8.91078572099357,
            55.309519343541304
          ],
          [
            8.9108100859112,
            55.30956802123623
          ],
          [
            8.91082963592037,
            55.309607078630826
          ],
          [
            8.910864282436341,
            55.30968303532602
          ],
          [
            8.910868088197883,
            55.30974225561705
          ],
          [
            8.910852802260743,
            55.309814401768016
          ],
          [
            8.910804894338831,
            55.309891196805324
          ],
          [
            8.910726984539544,
            55.30999843232572
          ],
          [
            8.91062960755435,
            55.31007510127356
          ],
          [
            8.910557317949285,
            55.31013480503853
          ],
          [
            8.910526235015578,
            55.3101555398575
          ],
          [
            8.91048823284784,
            55.31017060844099
          ],
          [
            8.910417598912165,
            55.310194549194605
          ],
          [
            8.910361498709095,
            55.31020088808047
          ],
          [
            8.910298635635847,
            55.31020209997505
          ],
          [
            8.910230132417396,
            55.310189379447124
          ],
          [
            8.910174886932287,
            55.3101660651904
          ],
          [
            8.910012151323375,
            55.31009297939224
          ],
          [
            8.909802625305758,
            55.30995066690565
          ],
          [
            8.909595375838228,
            55.30984708525268
          ],
          [
            8.909533668447306,
            55.30981214976441
          ],
          [
            8.909453454826052,
            55.30976673547431
          ],
          [
            8.909367693628173,
            55.30972300008706
          ],
          [
            8.909306763005747,
            55.309706151113225
          ],
          [
            8.90919055249906,
            55.30968162295993
          ],
          [
            8.90904753876749,
            55.30966633028917
          ],
          [
            8.908950668972235,
            55.30965808090332
          ],
          [
            8.908861500037112,
            55.30965801441487
          ],
          [
            8.908740942842606,
            55.30967418901693
          ],
          [
            8.908651115201724,
            55.30968652251596
          ],
          [
            8.908520497868173,
            55.30969280481516
          ],
          [
            8.908423397697069,
            55.309716185439044
          ],
          [
            8.908360477735188,
            55.309742377278866
          ],
          [
            8.908300518245516,
            55.309782769134486
          ],
          [
            8.908193202763607,
            55.30986338250938
          ],
          [
            8.908122914950395,
            55.309941687290426
          ],
          [
            8.90807782263256,
            55.31002486341177
          ],
          [
            8.908061292995122,
            55.310087573012595
          ],
          [
            8.908061605988184,
            55.31015658546241
          ],
          [
            8.9080671085985,
            55.31022964550114
          ],
          [
            8.908061845827918,
            55.310269481716134
          ],
          [
            8.908057327092811,
            55.31030368249325
          ],
          [
            8.908035079523872,
            55.3103863366267
          ],
          [
            8.90805135113027,
            55.31043523252381
          ],
          [
            8.908045823736803,
            55.31044097938113
          ],
          [
            8.908020879368104,
            55.31046351537541
          ],
          [
            8.907984392328588,
            55.3105041044607
          ],
          [
            8.90796568708139,
            55.310553692896555
          ],
          [
            8.907955217259323,
            55.3105846865872
          ],
          [
            8.907911352648972,
            55.31061349847758
          ],
          [
            8.907854773744091,
            55.31066823245983
          ],
          [
            8.907847402936063,
            55.31067536355334
          ],
          [
            8.90775761184259,
            55.3107387367006
          ],
          [
            8.907714031131453,
            55.310780847961276
          ],
          [
            8.907689825466033,
            55.31082432174194
          ],
          [
            8.907680589642261,
            55.3108665487956
          ],
          [
            8.907680343175715,
            55.31090482881731
          ],
          [
            8.907703553530041,
            55.31095076463169
          ],
          [
            8.907733870894223,
            55.31098924745861
          ],
          [
            8.907811089594976,
            55.311048433395676
          ],
          [
            8.907880767673085,
            55.3110983580548
          ],
          [
            8.907908455517513,
            55.311115901558665
          ],
          [
            8.90780682847102,
            55.31111950915541
          ],
          [
            8.907415807964647,
            55.31111328271797
          ],
          [
            8.906958457565748,
            55.31104068811687
          ],
          [
            8.906505739441227,
            55.31094185633144
          ],
          [
            8.906107810218895,
            55.31085986873917
          ],
          [
            8.905691628728905,
            55.310835196214796
          ],
          [
            8.905319246413084,
            55.31087642334464
          ],
          [
            8.905128603148295,
            55.31107899880549
          ],
          [
            8.905106830413905,
            55.311289972332816
          ],
          [
            8.905205220621061,
            55.31152080826494
          ],
          [
            8.905157179212164,
            55.31164810208197
          ],
          [
            8.905146419096356,
            55.31179968692903
          ],
          [
            8.905016649074046,
            55.311909754014565
          ],
          [
            8.905028390985755,
            55.31207276851003
          ],
          [
            8.905141237600303,
            55.31218832580113
          ],
          [
            8.905277556537044,
            55.31217324529132
          ],
          [
            8.905448255311205,
            55.31214408328031
          ],
          [
            8.905576360990185,
            55.31213753274489
          ],
          [
            8.905720406903674,
            55.312185808749064
          ],
          [
            8.905766814612994,
            55.31228190449183
          ],
          [
            8.90641435903921,
            55.3126156915712
          ],
          [
            8.906488949351807,
            55.312654118742465
          ],
          [
            8.906481689384849,
            55.31265941490293
          ],
          [
            8.906388571555532,
            55.31272763689871
          ],
          [
            8.906340431257204,
            55.31276417286709
          ],
          [
            8.906283139557624,
            55.31280627309293
          ],
          [
            8.906218907262087,
            55.3128517826296
          ],
          [
            8.906175965338585,
            55.3128885921016
          ],
          [
            8.906141687387489,
            55.31292603723193
          ],
          [
            8.906111194097598,
            55.312962047507156
          ],
          [
            8.906078599438326,
            55.31302052106243
          ],
          [
            8.906029314813424,
            55.31307430907254
          ],
          [
            8.90599805775898,
            55.31310007473555
          ],
          [
            8.905946721293875,
            55.31315529888679
          ],
          [
            8.905907018750918,
            55.31322113541051
          ],
          [
            8.905867762991607,
            55.31329784527759
          ],
          [
            8.90584575275426,
            55.313344195875274
          ],
          [
            8.905827179761083,
            55.31340277002475
          ],
          [
            8.90579818513609,
            55.313470951113665
          ],
          [
            8.905776151410398,
            55.31350719786535
          ],
          [
            8.905761330428149,
            55.3135315779255
          ],
          [
            8.905699874403995,
            55.31360153113851
          ],
          [
            8.905652336831542,
            55.31364894030847
          ],
          [
            8.905605287828877,
            55.313689610366836
          ],
          [
            8.905543463907458,
            55.31371526243113
          ],
          [
            8.905495671797862,
            55.31373706135586
          ],
          [
            8.905424236660666,
            55.31376270592484
          ],
          [
            8.905318889926555,
            55.313803600308695
          ],
          [
            8.905182165605442,
            55.31385417509086
          ],
          [
            8.905032992049126,
            55.31390545892032
          ],
          [
            8.904912382786348,
            55.3139373551284
          ],
          [
            8.90484963225564,
            55.313954828896094
          ],
          [
            8.904782013477393,
            55.31396555936753
          ],
          [
            8.90467720331852,
            55.313979316016265
          ],
          [
            8.904623633122597,
            55.313979274208165
          ],
          [
            8.904590388089304,
            55.31397924825074
          ],
          [
            8.904510359790379,
            55.31397424345026
          ],
          [
            8.904361047564741,
            55.31395166175911
          ],
          [
            8.9043059137149,
            55.31394667630959
          ],
          [
            8.904237730178316,
            55.31393017857843
          ],
          [
            8.90410154598843,
            55.313886759431476
          ],
          [
            8.904044413898689,
            55.31386110458685
          ],
          [
            8.90401766903262,
            55.31384445955216
          ],
          [
            8.90401820399828,
            55.31381867026642
          ],
          [
            8.904019238551207,
            55.313781738782275
          ],
          [
            8.904049415517775,
            55.313682018325
          ],
          [
            8.90407957845137,
            55.31358804886251
          ],
          [
            8.90414875546975,
            55.31345367318222
          ],
          [
            8.904166053167954,
            55.31340228705574
          ],
          [
            8.90416032107447,
            55.313361845735116
          ],
          [
            8.904008746320565,
            55.31329855543177
          ],
          [
            8.903961606031423,
            55.31331127844947
          ],
          [
            8.903893880974326,
            55.31336630913438
          ],
          [
            8.903809684303729,
            55.313456641640215
          ],
          [
            8.903755313094717,
            55.31352740819156
          ],
          [
            8.903721458841261,
            55.31357609530928
          ],
          [
            8.903685745137182,
            55.31362745697041
          ],
          [
            8.903642438286042,
            55.3136834952164
          ],
          [
            8.903593586465917,
            55.31375201955622
          ],
          [
            8.903567275629214,
            55.3138163382682
          ],
          [
            8.903568590955631,
            55.31385866317943
          ],
          [
            8.903596907262665,
            55.313941895517566
          ],
          [
            8.90361667035643,
            55.31404372203787
          ],
          [
            8.903643472957159,
            55.31410152290192
          ],
          [
            8.903694415545962,
            55.314210652620794
          ],
          [
            8.903716236798667,
            55.314275400180286
          ],
          [
            8.90373634044675,
            55.31433505134279
          ],
          [
            8.90375602988432,
            55.31440246155107
          ],
          [
            8.903753694752407,
            55.31445583631049
          ],
          [
            8.90374104650433,
            55.3145387667504
          ],
          [
            8.903713597396258,
            55.3146175519831
          ],
          [
            8.903657258517846,
            55.31471931848587
          ],
          [
            8.903631160055657,
            55.31476081303337
          ],
          [
            8.903580158135618,
            55.31480579244807
          ],
          [
            8.903469389356376,
            55.31487148219922
          ],
          [
            8.90334142177981,
            55.31494704279852
          ],
          [
            8.9032686873542,
            55.314987152469
          ],
          [
            8.9031984930616,
            55.31501935646505
          ],
          [
            8.903055967296938,
            55.31505545687055
          ],
          [
            8.902933734298779,
            55.31510496231164
          ],
          [
            8.902803467647253,
            55.315153472783926
          ],
          [
            8.90269622177933,
            55.315195172125
          ],
          [
            8.902515603319934,
            55.315279586011634
          ],
          [
            8.902349965122736,
            55.3153589794677
          ],
          [
            8.902248237200316,
            55.31539897549263
          ],
          [
            8.9021605914472,
            55.31541499020237
          ],
          [
            8.902083203300366,
            55.31542454318062
          ],
          [
            8.90198314058451,
            55.31542805732933
          ],
          [
            8.901896330183567,
            55.3154247527097
          ],
          [
            8.901824821150921,
            55.315414361417865
          ],
          [
            8.901702485779285,
            55.315376791608664
          ],
          [
            8.901587885778493,
            55.31533338703477
          ],
          [
            8.901489185125575,
            55.315296015765675
          ],
          [
            8.901476706488065,
            55.31529327037782
          ],
          [
            8.90140351657872,
            55.31527716600841
          ],
          [
            8.901319694256895,
            55.31527628959896
          ],
          [
            8.901199133934957,
            55.31528562742115
          ],
          [
            8.90107728239319,
            55.31530727484192
          ],
          [
            8.900977927096022,
            55.315343138190144
          ],
          [
            8.900788072812105,
            55.31540157261757
          ],
          [
            8.90076318974787,
            55.31540865131614
          ],
          [
            8.900659565666075,
            55.31543813090744
          ],
          [
            8.900577923078826,
            55.315447589613484
          ],
          [
            8.90049897436226,
            55.315450940007324
          ],
          [
            8.900392015512033,
            55.315439710265075
          ],
          [
            8.90028416905753,
            55.31540547565151
          ],
          [
            8.90020391221751,
            55.315365063169956
          ],
          [
            8.900123543146861,
            55.31530667862669
          ],
          [
            8.90009594799755,
            55.315252470735494
          ],
          [
            8.900063290479991,
            55.31514371392768
          ],
          [
            8.900044163716565,
            55.31504287582354
          ],
          [
            8.900039377895293,
            55.31503121532214
          ],
          [
            8.900017227825499,
            55.31497725628356
          ],
          [
            8.899973087790917,
            55.31492348411886
          ],
          [
            8.899912378195346,
            55.31487985249869
          ],
          [
            8.89985353276399,
            55.314846825807905
          ],
          [
            8.899786313040403,
            55.31482313761745
          ],
          [
            8.899720796426763,
            55.31481140211361
          ],
          [
            8.899642962280517,
            55.3148106193277
          ],
          [
            8.899537397789219,
            55.314809544114546
          ],
          [
            8.899417468717646,
            55.314818880698
          ],
          [
            8.899327957621795,
            55.314824917426755
          ],
          [
            8.89926174437293,
            55.31483942010364
          ],
          [
            8.899195023738837,
            55.31486758098405
          ],
          [
            8.899132531208965,
            55.314905989312095
          ],
          [
            8.899102298858091,
            55.31496023954188
          ],
          [
            8.899103923907624,
            55.315002834329746
          ],
          [
            8.899127584598093,
            55.315054612990636
          ],
          [
            8.899178326952,
            55.31511405206265
          ],
          [
            8.899259511145429,
            55.31522311870947
          ],
          [
            8.89927451408034,
            55.3152375616302
          ],
          [
            8.899319397208476,
            55.315280768068426
          ],
          [
            8.89936118966889,
            55.315328068642486
          ],
          [
            8.899376841699004,
            55.31536932708366
          ],
          [
            8.89937353316373,
            55.315431417331254
          ],
          [
            8.899350934498964,
            55.315520000265316
          ],
          [
            8.899310267121425,
            55.315588260039085
          ],
          [
            8.899256383650316,
            55.31564878097784
          ],
          [
            8.899197609079119,
            55.315711813925226
          ],
          [
            8.899143494523216,
            55.31573908657824
          ],
          [
            8.899069845988654,
            55.31576463573986
          ],
          [
            8.89897904636352,
            55.31578082528093
          ],
          [
            8.898915994840966,
            55.315790567825466
          ],
          [
            8.89887236834384,
            55.315782893659005
          ],
          [
            8.898809402831947,
            55.31575884901801
          ],
          [
            8.89876443040027,
            55.31575379400354
          ],
          [
            8.898709534119586,
            55.315747623675605
          ],
          [
            8.89855086821352,
            55.31574614413811
          ],
          [
            8.898410936176965,
            55.31575114986266
          ],
          [
            8.898322971361422,
            55.31576779057124
          ],
          [
            8.898262550705851,
            55.31579613590093
          ],
          [
            8.898172879729724,
            55.3158636356022
          ],
          [
            8.898071052270499,
            55.31594029077275
          ],
          [
            8.898049174515934,
            55.31599230121392
          ],
          [
            8.898067824759352,
            55.31603140569072
          ],
          [
            8.898122206958133,
            55.31608455805833
          ],
          [
            8.89823121267109,
            55.31615833375465
          ],
          [
            8.898254997519338,
            55.31617067780455
          ],
          [
            8.898331450603138,
            55.31621035604042
          ],
          [
            8.898413953403233,
            55.31623504618871
          ],
          [
            8.898635227086453,
            55.316278272702746
          ],
          [
            8.898820285400136,
            55.31631167413666
          ],
          [
            8.898872699492765,
            55.316333822985484
          ],
          [
            8.89891973961802,
            55.31636252711453
          ],
          [
            8.8989502279889,
            55.31639400318364
          ],
          [
            8.898963385866471,
            55.316424656178526
          ],
          [
            8.898951161413729,
            55.31646067975596
          ],
          [
            8.898900432401485,
            55.31651931608773
          ],
          [
            8.89885461191651,
            55.31656852120698
          ],
          [
            8.89884826997667,
            55.31664579518393
          ],
          [
            8.898856726351674,
            55.31667753159734
          ],
          [
            8.898861848878452,
            55.31669675679883
          ],
          [
            8.898896254080876,
            55.31673713221876
          ],
          [
            8.898945052884844,
            55.316756043098714
          ],
          [
            8.899017538458368,
            55.31675484499641
          ],
          [
            8.899075565432051,
            55.316747406742245
          ],
          [
            8.899163811658099,
            55.31673609529672
          ],
          [
            8.899300009106572,
            55.316713832594864
          ],
          [
            8.899426199197121,
            55.316723281930145
          ],
          [
            8.899532183316117,
            55.316747361630306
          ],
          [
            8.899635273645059,
            55.316794263190395
          ],
          [
            8.899762651669798,
            55.31689510032838
          ],
          [
            8.899832264634071,
            55.3169709090295
          ],
          [
            8.899860384282855,
            55.31700489899356
          ],
          [
            8.899879950287149,
            55.31705667413467
          ],
          [
            8.899895105917059,
            55.31710781664177
          ],
          [
            8.89989069526575,
            55.31716981612277
          ],
          [
            8.899875137047568,
            55.31721590132671
          ],
          [
            8.899818109613184,
            55.317272915398384
          ],
          [
            8.899742639665035,
            55.317332430378556
          ],
          [
            8.899667199442014,
            55.31738008387485
          ],
          [
            8.899618451312387,
            55.317403047879715
          ],
          [
            8.899515328837042,
            55.31743054999536
          ],
          [
            8.899414791765158,
            55.31743262389866
          ],
          [
            8.899327057489522,
            55.31741916256626
          ],
          [
            8.899211418727417,
            55.317411249447424
          ],
          [
            8.899105837299556,
            55.317414127671206
          ],
          [
            8.899004475610438,
            55.31743066794422
          ],
          [
            8.898897747205039,
            55.31745079807451
          ],
          [
            8.89887517546385,
            55.31745673079296
          ],
          [
            8.89877538826766,
            55.31748295634313
          ],
          [
            8.89866356431968,
            55.31752383960394
          ],
          [
            8.898538308067153,
            55.31757971815375
          ],
          [
            8.898414123924107,
            55.31764754878657
          ],
          [
            8.89830490867461,
            55.317715481612154
          ],
          [
            8.898204348366045,
            55.31778782466867
          ],
          [
            8.898104159778075,
            55.31788282064532
          ],
          [
            8.898067239924538,
            55.317917826985976
          ],
          [
            8.898009880129207,
            55.317980141644654
          ],
          [
            8.897961587339811,
            55.31800921581617
          ],
          [
            8.897900059295354,
            55.31803782961153
          ],
          [
            8.897856535665541,
            55.31805055328913
          ],
          [
            8.897801836161632,
            55.31805859490737
          ],
          [
            8.897711377390173,
            55.31806256288956
          ],
          [
            8.897658925328466,
            55.3180545214665
          ],
          [
            8.897588385458112,
            55.31803352508647
          ],
          [
            8.897474737023678,
            55.317986523090596
          ],
          [
            8.897318766650605,
            55.31791414503578
          ],
          [
            8.897177153349602,
            55.31783512925722
          ],
          [
            8.89706168258751,
            55.31776206607172
          ],
          [
            8.896987027326169,
            55.31771447194144
          ],
          [
            8.896961473166563,
            55.31769818132167
          ],
          [
            8.896897599273839,
            55.31765912839246
          ],
          [
            8.8968213857486,
            55.31763893551587
          ],
          [
            8.89666902349741,
            55.31763431377701
          ],
          [
            8.896546574340833,
            55.31763969159037
          ],
          [
            8.89643841121065,
            55.31766547950952
          ],
          [
            8.896343912579304,
            55.31770826238182
          ],
          [
            8.896285790190628,
            55.31775997216016
          ],
          [
            8.896248903846836,
            55.31782562817556
          ],
          [
            8.896240027224191,
            55.31790604493531
          ],
          [
            8.89625908619625,
            55.317969322242085
          ],
          [
            8.896288404285086,
            55.318026228226
          ],
          [
            8.89633320613297,
            55.31806733206045
          ],
          [
            8.896384611437014,
            55.31810022561996
          ],
          [
            8.896402109429081,
            55.31811142168119
          ],
          [
            8.896483485957422,
            55.31814608657877
          ],
          [
            8.896519788162772,
            55.31818367862003
          ],
          [
            8.896526000172479,
            55.31821863924418
          ],
          [
            8.896507425666927,
            55.31827164064361
          ],
          [
            8.896460024898735,
            55.31832066379515
          ],
          [
            8.896403085398848,
            55.318341462944005
          ],
          [
            8.896326464221696,
            55.31835631463772
          ],
          [
            8.896252718553162,
            55.31835616218137
          ],
          [
            8.896160062740137,
            55.31835635304881
          ],
          [
            8.896049238991651,
            55.31831411468559
          ],
          [
            8.895982536159488,
            55.31827218336972
          ],
          [
            8.895929223915873,
            55.318231611316726
          ],
          [
            8.89577321108436,
            55.3181761248496
          ],
          [
            8.895629851014942,
            55.318103036520185
          ],
          [
            8.895563895760528,
            55.31807674117394
          ],
          [
            8.895475886642402,
            55.318047910859846
          ],
          [
            8.895382958272126,
            55.31803219576433
          ],
          [
            8.895268086023522,
            55.318032007492114
          ],
          [
            8.895164227222219,
            55.31803820859028
          ],
          [
            8.895107141023663,
            55.31805478361156
          ],
          [
            8.895050326256133,
            55.31808789299628
          ],
          [
            8.894988985625458,
            55.31813180317675
          ],
          [
            8.894985755506264,
            55.31813411518247
          ],
          [
            8.894926169769061,
            55.31820199777218
          ],
          [
            8.894813936289017,
            55.318335791925534
          ],
          [
            8.894763662938505,
            55.318397661861205
          ],
          [
            8.894712363065665,
            55.318430596118056
          ],
          [
            8.894691967671358,
            55.31843897861121
          ],
          [
            8.894617240219743,
            55.31846969287198
          ],
          [
            8.894473094652414,
            55.318514767810655
          ],
          [
            8.894343494397031,
            55.31854161367086
          ],
          [
            8.894089216114157,
            55.318581111437936
          ],
          [
            8.893921921205347,
            55.31862032478715
          ],
          [
            8.893732683703213,
            55.31867407607039
          ],
          [
            8.893532912030398,
            55.318718831927455
          ],
          [
            8.893423207033585,
            55.31873014844534
          ],
          [
            8.89332473224902,
            55.31872574925052
          ],
          [
            8.893213690600653,
            55.31870669188847
          ],
          [
            8.893022220809655,
            55.318652608670604
          ],
          [
            8.89292172172476,
            55.3186393112837
          ],
          [
            8.892892823528078,
            55.31863928595445
          ],
          [
            8.89282150223049,
            55.31863922341211
          ],
          [
            8.89273384747867,
            55.31865451247158
          ],
          [
            8.892656386671595,
            55.31868778233292
          ],
          [
            8.892587036231234,
            55.318751970957464
          ],
          [
            8.892468816270851,
            55.31888171400658
          ],
          [
            8.89245410887257,
            55.31895933970344
          ],
          [
            8.892465227477707,
            55.31903917890559
          ],
          [
            8.892465547436162,
            55.31904148138853
          ],
          [
            8.892475594579311,
            55.319113737298
          ],
          [
            8.892467456356314,
            55.31915129142176
          ],
          [
            8.892441954397086,
            55.31919988298342
          ],
          [
            8.89239756854344,
            55.31923893279993
          ],
          [
            8.892334291710164,
            55.31927104677103
          ],
          [
            8.892202575123278,
            55.319321431691606
          ],
          [
            8.89209929179478,
            55.31934641133501
          ],
          [
            8.891966103184327,
            55.31935842467996
          ],
          [
            8.891900081285016,
            55.31935674881436
          ],
          [
            8.891814415149865,
            55.31933546614273
          ],
          [
            8.891670111481892,
            55.319262821641956
          ],
          [
            8.891564593621991,
            55.31918266319652
          ],
          [
            8.89145426704909,
            55.319132423612594
          ],
          [
            8.891393669364314,
            55.31911463957822
          ],
          [
            8.89134861555576,
            55.3191014180269
          ],
          [
            8.891180733852186,
            55.31906541466706
          ],
          [
            8.891019292995809,
            55.31903678530343
          ],
          [
            8.890901601426133,
            55.31902931178996
          ],
          [
            8.890821538272508,
            55.31903391297052
          ],
          [
            8.89074993077015,
            55.31905802117947
          ],
          [
            8.890690526623978,
            55.319114040400535
          ],
          [
            8.890628160469502,
            55.31927285625032
          ],
          [
            8.890574234321964,
            55.319355983749396
          ],
          [
            8.890572930318607,
            55.31935799363794
          ],
          [
            8.89046518086688,
            55.31945925864433
          ],
          [
            8.89039401711304,
            55.31949352116841
          ],
          [
            8.890261211634376,
            55.31953761285177
          ],
          [
            8.890117381863014,
            55.31957926826932
          ],
          [
            8.889970717310462,
            55.319620202088444
          ],
          [
            8.88987259289881,
            55.3196592924413
          ],
          [
            8.889782616691079,
            55.319714924219106
          ],
          [
            8.889685997074773,
            55.319779446025855
          ],
          [
            8.889602358342108,
            55.3198225929173
          ],
          [
            8.889528386688946,
            55.319846069255405
          ],
          [
            8.889460752256888,
            55.319857330386235
          ],
          [
            8.889377202686594,
            55.31986830749293
          ],
          [
            8.889340702957025,
            55.31986956033133
          ],
          [
            8.889221653301146,
            55.31987364799437
          ],
          [
            8.88911117177919,
            55.31987929878619
          ],
          [
            8.889043696762982,
            55.319889840954666
          ],
          [
            8.888998735716418,
            55.31990768216306
          ],
          [
            8.888989503516635,
            55.31994074208162
          ],
          [
            8.889045584455834,
            55.32006030619112
          ],
          [
            8.889085757113534,
            55.32015633510211
          ],
          [
            8.88910913946944,
            55.32021222648421
          ],
          [
            8.889180749079761,
            55.32035795373891
          ],
          [
            8.889195415425045,
            55.32041053485959
          ],
          [
            8.88919362008933,
            55.32043272853288
          ],
          [
            8.889158889736645,
            55.32045480247381
          ],
          [
            8.889103380185897,
            55.32046894990945
          ],
          [
            8.889034043513314,
            55.32046861738053
          ],
          [
            8.888826401728648,
            55.32044865953403
          ],
          [
            8.888760524053867,
            55.320439898478334
          ],
          [
            8.88860869991383,
            55.32041970621154
          ],
          [
            8.888527242408093,
            55.32041468964923
          ],
          [
            8.888443690399173,
            55.32042602555313
          ],
          [
            8.888295108502078,
            55.32047459366615
          ],
          [
            8.888184330773488,
            55.32052885734964
          ],
          [
            8.888095993762025,
            55.32056046274141
          ],
          [
            8.8880705968448,
            55.32056954943697
          ],
          [
            8.887923660789466,
            55.32059295794006
          ],
          [
            8.887796445352123,
            55.320608386880444
          ],
          [
            8.887740665380278,
            55.320606448594766
          ],
          [
            8.887664429776843,
            55.32059370833649
          ],
          [
            8.887586825023865,
            55.32056362388364
          ],
          [
            8.887446433714953,
            55.32050176114962
          ],
          [
            8.887264283600956,
            55.32043959015271
          ],
          [
            8.887186738648623,
            55.32038865809069
          ],
          [
            8.88713785181555,
            55.3203456600918
          ],
          [
            8.88712269070033,
            55.320301794639
          ],
          [
            8.88713541155768,
            55.32026163918284
          ],
          [
            8.887184559059142,
            55.320212800989914
          ],
          [
            8.887264435033282,
            55.32016408099237
          ],
          [
            8.887276178883488,
            55.32015495760663
          ],
          [
            8.887294126307395,
            55.320141014485635
          ],
          [
            8.887305574546374,
            55.320104991375125
          ],
          [
            8.887301438824805,
            55.32006302316146
          ],
          [
            8.887279493142866,
            55.32002211683252
          ],
          [
            8.887216097535255,
            55.31998314915514
          ],
          [
            8.887121619912666,
            55.319957631663186
          ],
          [
            8.886989092204425,
            55.3199022455467
          ],
          [
            8.886869800267196,
            55.31984741069868
          ],
          [
            8.886779286310734,
            55.31981362953418
          ],
          [
            8.886701642239474,
            55.31979810172196
          ],
          [
            8.886597497980961,
            55.31979180479949
          ],
          [
            8.886531290036638,
            55.31979992054954
          ],
          [
            8.886445025693577,
            55.31982320388633
          ],
          [
            8.886368163775332,
            55.31986482725128
          ],
          [
            8.886303518581947,
            55.319932521200144
          ],
          [
            8.88623342553897,
            55.32003157101748
          ],
          [
            8.886215885238313,
            55.32010353216664
          ],
          [
            8.886241689960446,
            55.320172208873416
          ],
          [
            8.886277536430491,
            55.32025617103993
          ],
          [
            8.886299670625881,
            55.32034101903066
          ],
          [
            8.886297790914583,
            55.320362947498325
          ],
          [
            8.886292986429506,
            55.32041901087707
          ],
          [
            8.886248012101573,
            55.320495888766516
          ],
          [
            8.886200152094311,
            55.320534843232934
          ],
          [
            8.886131852499142,
            55.32055751406053
          ],
          [
            8.886052256154393,
            55.32056292128722
          ],
          [
            8.885949224700704,
            55.32055258117323
          ],
          [
            8.885798483948422,
            55.32052862760188
          ],
          [
            8.88562649136706,
            55.32049701589373
          ],
          [
            8.885474893062272,
            55.320442688601105
          ],
          [
            8.885369597597172,
            55.32039792967798
          ],
          [
            8.885321978156773,
            55.32038276433139
          ],
          [
            8.885257814930725,
            55.320362330243434
          ],
          [
            8.885187716783864,
            55.32035291900454
          ],
          [
            8.8851056159991,
            55.32035257225165
          ],
          [
            8.885003121001809,
            55.32037494071082
          ],
          [
            8.88488462625258,
            55.32042613891848
          ],
          [
            8.88478313527092,
            55.32048256489854
          ],
          [
            8.884684735980072,
            55.3205595715426
          ],
          [
            8.884647050894444,
            55.32062144918157
          ],
          [
            8.884642139902454,
            55.320684615788736
          ],
          [
            8.8846454270267,
            55.320746532101815
          ],
          [
            8.884677513082494,
            55.3208220443862
          ],
          [
            8.884683670218529,
            55.32087246138724
          ],
          [
            8.884683809525658,
            55.32087242400452
          ]
        ]
      }
    }
  ]
}
