{
  "type": "FeatureCollection",
  "name": "german-denmark-1914-north-schleswig-001-026.0719-spandet-stage3-provisional",
  "features": [
    {
      "type": "Feature",
      "id": "land-border:deu-dnk:1914:north-schleswig:0719-spandet-stage3",
      "properties": {
        "referenceDate": "1914-07-31",
        "sheetId": "0719",
        "sourcePublicationYear": 1880,
        "status": "provisional-modern-parish-only",
        "historicalMapTraced": false,
        "doNotTreatAsFinal": true,
        "lengthKm": 8.51496,
        "canonicalSource": "german-denmark-1914-north-schleswig-001-026.sheet-segments.geojson"
      },
      "geometry": {
        "type": "LineString",
        "coordinates": [
          [
            8.833333333333332,
            55.27205685739951
          ],
          [
            8.833479340377194,
            55.27202295869076
          ],
          [
            8.834185792851823,
            55.27185516239382
          ],
          [
            8.83490219790607,
            55.27167704153028
          ],
          [
            8.835519967817904,
            55.27152349522506
          ],
          [
            8.83611205208603,
            55.271376291404195
          ],
          [
            8.837914363425346,
            55.270944941382425
          ],
          [
            8.838386692767042,
            55.2708277605727
          ],
          [
            8.839629437865844,
            55.27055388735463
          ],
          [
            8.842258007751116,
            55.26990968804339
          ],
          [
            8.842834770514676,
            55.269764049309785
          ],
          [
            8.844797807740099,
            55.26928553790785
          ],
          [
            8.845320203052133,
            55.26915819205624
          ],
          [
            8.845940856235385,
            55.26900689080466
          ],
          [
            8.847520082955514,
            55.26862193453255
          ],
          [
            8.849682749007963,
            55.268135865723345
          ],
          [
            8.853809483053372,
            55.26998939310222
          ],
          [
            8.853933938029385,
            55.27004237990656
          ],
          [
            8.854146929851913,
            55.270157920793615
          ],
          [
            8.854339189022719,
            55.27026221302335
          ],
          [
            8.856064497302052,
            55.271035889367596
          ],
          [
            8.85610535219358,
            55.27105426901919
          ],
          [
            8.856144007570851,
            55.27107156774224
          ],
          [
            8.858137312649806,
            55.27196540369794
          ],
          [
            8.860656488967376,
            55.273107283303936
          ],
          [
            8.861589041075238,
            55.27343291914529
          ],
          [
            8.863714058624996,
            55.2741769259283
          ],
          [
            8.864321838301839,
            55.273792911077535
          ],
          [
            8.865272030121115,
            55.27422196745461
          ],
          [
            8.86492373433236,
            55.27439698984457
          ],
          [
            8.86528034281235,
            55.27460271441726
          ],
          [
            8.865223078836781,
            55.27464003308116
          ],
          [
            8.865321918934116,
            55.27468938553683
          ],
          [
            8.86562623154125,
            55.27476771946254
          ],
          [
            8.865704708168545,
            55.2747879344846
          ],
          [
            8.865862290673384,
            55.2748285447887
          ],
          [
            8.866242771405526,
            55.27495907974847
          ],
          [
            8.866321223151713,
            55.27499065627216
          ],
          [
            8.866856612323788,
            55.275206147303194
          ],
          [
            8.867135219835077,
            55.27530089384699
          ],
          [
            8.86746682764834,
            55.275409805340836
          ],
          [
            8.867715211745342,
            55.2755057757932
          ],
          [
            8.86799890636503,
            55.27563413358791
          ],
          [
            8.868254791898334,
            55.2757472743456
          ],
          [
            8.868267208969847,
            55.27575276921404
          ],
          [
            8.868498693293256,
            55.27586723103471
          ],
          [
            8.868950684560632,
            55.2761326248117
          ],
          [
            8.86915963628009,
            55.276255328324616
          ],
          [
            8.86928924997499,
            55.276331398997904
          ],
          [
            8.870555841125208,
            55.277134121347196
          ],
          [
            8.87131299126643,
            55.277624120399196
          ],
          [
            8.871899402804681,
            55.27800358743635
          ],
          [
            8.873533137130746,
            55.279075075477586
          ],
          [
            8.87436904590372,
            55.27962336629358
          ],
          [
            8.875048025597064,
            55.28002079541568
          ],
          [
            8.875306412864568,
            55.28020500321289
          ],
          [
            8.875636519632824,
            55.28026033422952
          ],
          [
            8.8762631239444,
            55.280244885773314
          ],
          [
            8.877197991751922,
            55.2802217469244
          ],
          [
            8.87941934028019,
            55.28019960837796
          ],
          [
            8.879482468026277,
            55.28019858877767
          ],
          [
            8.880064030949708,
            55.28018919044425
          ],
          [
            8.880136292747073,
            55.280188093210626
          ],
          [
            8.880192811455926,
            55.280187160210566
          ],
          [
            8.881428034395984,
            55.2801672486622
          ],
          [
            8.881901937555652,
            55.28014991557227
          ],
          [
            8.882358049128419,
            55.28013328238652
          ],
          [
            8.882470253214061,
            55.280093672249784
          ],
          [
            8.882604390251412,
            55.280090117006104
          ],
          [
            8.882710619854945,
            55.28010118201498
          ],
          [
            8.883147730991308,
            55.28038951288201
          ],
          [
            8.883410277078095,
            55.28056490118898
          ],
          [
            8.883585433533826,
            55.28063929274217
          ],
          [
            8.883785214480989,
            55.280637506102074
          ],
          [
            8.88401321208154,
            55.28062298580147
          ],
          [
            8.884163165366104,
            55.28064882812335
          ],
          [
            8.88426067383055,
            55.280682078957334
          ],
          [
            8.884394167580645,
            55.280683822884235
          ],
          [
            8.884592614231883,
            55.28065363786423
          ],
          [
            8.886256366608144,
            55.28041374469431
          ],
          [
            8.888852423220785,
            55.28004375476222
          ],
          [
            8.88894704989099,
            55.28003871882337
          ],
          [
            8.889022625119694,
            55.28003474382101
          ],
          [
            8.890892446006225,
            55.28006266787356
          ],
          [
            8.891885646716283,
            55.280061214842604
          ],
          [
            8.892848143923413,
            55.280061793580224
          ],
          [
            8.8949241052505,
            55.28006449604928
          ],
          [
            8.896899315103477,
            55.280066988349404
          ],
          [
            8.898772198947821,
            55.28006936392443
          ],
          [
            8.902203145028375,
            55.28006245481948
          ],
          [
            8.905253972337677,
            55.27949946010739
          ],
          [
            8.905382703254757,
            55.27945058615527
          ],
          [
            8.905754543722907,
            55.27938096252347
          ],
          [
            8.90675656493311,
            55.27923552932272
          ],
          [
            8.907728865179825,
            55.27907326160504
          ],
          [
            8.907905717784566,
            55.27904374126693
          ],
          [
            8.907908698178172,
            55.27904832638036
          ],
          [
            8.907785317763398,
            55.279067965657475
          ],
          [
            8.907776100485938,
            55.27906943330141
          ],
          [
            8.907791879455928,
            55.27912147422245
          ],
          [
            8.907829920120221,
            55.27921333997496
          ],
          [
            8.907922305081653,
            55.279426827430036
          ],
          [
            8.908077756012464,
            55.27978636968811
          ],
          [
            8.908094863224637,
            55.27982593628539
          ],
          [
            8.9081209623064,
            55.27987652200101
          ],
          [
            8.908196576834378,
            55.28002307599245
          ],
          [
            8.908308043769006,
            55.28022372747527
          ],
          [
            8.90840363884746,
            55.28041259527336
          ],
          [
            8.908601867726038,
            55.28091003222613
          ],
          [
            8.908758796425605,
            55.28130382390178
          ],
          [
            8.909254903558137,
            55.282457817144135
          ],
          [
            8.909343007674005,
            55.28269115929653
          ],
          [
            8.909578047238396,
            55.283250622528556
          ],
          [
            8.909618301376597,
            55.283275396189694
          ],
          [
            8.909619710051434,
            55.283276263483096
          ],
          [
            8.909630511618253,
            55.283303409211534
          ],
          [
            8.91074690283368,
            55.28590127492198
          ],
          [
            8.910792373323877,
            55.28591559588529
          ],
          [
            8.91084391098477,
            55.28603290083125
          ],
          [
            8.910920812449241,
            55.28621420457981
          ],
          [
            8.910997544698711,
            55.286401079471126
          ],
          [
            8.911055196038678,
            55.28653096917334
          ],
          [
            8.9111051360592,
            55.286659325612845
          ],
          [
            8.911153684222759,
            55.286776538377
          ],
          [
            8.911217788544874,
            55.28690805016809
          ],
          [
            8.911278758666311,
            55.287033089726265
          ],
          [
            8.91133243544907,
            55.287180948394244
          ],
          [
            8.911375456218945,
            55.28730615458565
          ],
          [
            8.911457603363274,
            55.287467333125804
          ],
          [
            8.911553169427957,
            55.28768378521463
          ],
          [
            8.911677619636574,
            55.28786934627893
          ],
          [
            8.911813471041786,
            55.28802642983015
          ],
          [
            8.911962634395412,
            55.288216501433126
          ],
          [
            8.912017140325986,
            55.288276117873565
          ],
          [
            8.913655840765148,
            55.29058048789555
          ],
          [
            8.913866331774674,
            55.29067202497498
          ],
          [
            8.914026539681833,
            55.2907161683222
          ],
          [
            8.914097017287386,
            55.29074757902933
          ],
          [
            8.914170018362919,
            55.29077719427021
          ],
          [
            8.91430485011669,
            55.290832013646806
          ],
          [
            8.914425357298782,
            55.29088466619997
          ],
          [
            8.914515656215432,
            55.290925525843384
          ],
          [
            8.914690470097877,
            55.290987741283985
          ],
          [
            8.914762208071812,
            55.2910193322057
          ],
          [
            8.914969241213095,
            55.29111086406417
          ],
          [
            8.915212460658847,
            55.29121769688346
          ],
          [
            8.915462284060444,
            55.29132974566281
          ],
          [
            8.91571777036895,
            55.29144530237354
          ],
          [
            8.91583229360271,
            55.291499746600955
          ],
          [
            8.916020917876585,
            55.2915864115447
          ],
          [
            8.916256583873265,
            55.291693506660344
          ],
          [
            8.916540573605664,
            55.29181078851954
          ],
          [
            8.916833381382979,
            55.29192906417932
          ],
          [
            8.917209878761032,
            55.29208945033009
          ],
          [
            8.917536181133773,
            55.29223245847285
          ],
          [
            8.917692883943316,
            55.29230049826397
          ],
          [
            8.917847541614227,
            55.2923678175983
          ],
          [
            8.918045775878056,
            55.292456642500774
          ],
          [
            8.918143170648998,
            55.292496425891265
          ],
          [
            8.918251565002775,
            55.29254780849412
          ],
          [
            8.918316854188813,
            55.29257840454257
          ],
          [
            8.918390020718013,
            55.29260729848136
          ],
          [
            8.918556490470706,
            55.29267507410515
          ],
          [
            8.918655287942068,
            55.292722496112546
          ],
          [
            8.918817986737505,
            55.29278658461085
          ],
          [
            8.918949534061884,
            55.2928368137992
          ],
          [
            8.919109378214001,
            55.292911233901975
          ],
          [
            8.919201596340699,
            55.29294220674614
          ],
          [
            8.919342716093341,
            55.29300951522205
          ],
          [
            8.919614744462713,
            55.2931325330355
          ],
          [
            8.919815998301301,
            55.29321156230975
          ],
          [
            8.920049011185794,
            55.2933165815531
          ],
          [
            8.920244423737634,
            55.29340378354484
          ],
          [
            8.920428664278871,
            55.29348693424966
          ],
          [
            8.920533552990095,
            55.293571176091795
          ],
          [
            8.920542653259128,
            55.29357848582395
          ],
          [
            8.920721906051766,
            55.293653067394295
          ],
          [
            8.920852629897878,
            55.29370745629947
          ],
          [
            8.921146563796011,
            55.29382724992079
          ],
          [
            8.921367949823555,
            55.293922374541125
          ],
          [
            8.921620340354558,
            55.29402776268453
          ],
          [
            8.921826780497733,
            55.29411649682605
          ],
          [
            8.922003452167285,
            55.29420799726769
          ],
          [
            8.922112187152678,
            55.29425119939538
          ],
          [
            8.92219322866603,
            55.294282612144016
          ],
          [
            8.922301493899239,
            55.294324645624854
          ],
          [
            8.922397640455038,
            55.2943629870556
          ],
          [
            8.922536578689051,
            55.29442373066524
          ],
          [
            8.92265914968132,
            55.29447907216104
          ],
          [
            8.922771488321652,
            55.29453252000667
          ],
          [
            8.92287156819208,
            55.29457328976614
          ],
          [
            8.92296315238104,
            55.294609830671305
          ],
          [
            8.92305992810974,
            55.29464925029372
          ],
          [
            8.923164871619887,
            55.29469981760136
          ],
          [
            8.923263059047926,
            55.29474238304558
          ],
          [
            8.923410009781824,
            55.29481445303405
          ],
          [
            8.923461304621707,
            55.29483775889339
          ],
          [
            8.923548171322086,
            55.29487124116623
          ],
          [
            8.923666970315715,
            55.29492406320847
          ],
          [
            8.923804328137674,
            55.29498974667406
          ],
          [
            8.923877022139706,
            55.29502472232695
          ],
          [
            8.923945147119596,
            55.29505749891639
          ],
          [
            8.924017625684074,
            55.295085844490266
          ],
          [
            8.924122814760157,
            55.29512698122916
          ],
          [
            8.924176632284953,
            55.29515496555956
          ],
          [
            8.924252925958752,
            55.295194636602695
          ],
          [
            8.924439367315834,
            55.29528865563565
          ],
          [
            8.924638592298843,
            55.29536875399209
          ],
          [
            8.924701539009163,
            55.29538311108297
          ],
          [
            8.924782787197238,
            55.295401641721476
          ],
          [
            8.924840683743469,
            55.29543249929202
          ],
          [
            8.924929422382172,
            55.295476764913246
          ],
          [
            8.925444384392188,
            55.29565455353951
          ],
          [
            8.925644975171796,
            55.29576430483349
          ],
          [
            8.92580311683638,
            55.29585513967966
          ],
          [
            8.925853108207392,
            55.295883855098104
          ],
          [
            8.925957970856064,
            55.29598150650548
          ],
          [
            8.926000878340767,
            55.296028169769016
          ],
          [
            8.926202376051075,
            55.29607537823567
          ],
          [
            8.926338747478928,
            55.29608282905937
          ],
          [
            8.92642012784234,
            55.29611026649226
          ],
          [
            8.926428460104377,
            55.29611307603709
          ],
          [
            8.926500702403994,
            55.29613747154748
          ],
          [
            8.926641362251594,
            55.29620824525245
          ],
          [
            8.926706507107694,
            55.29624102389579
          ],
          [
            8.926903198788924,
            55.29632667125981
          ],
          [
            8.926911709020228,
            55.2963303776793
          ],
          [
            8.926922215886112,
            55.29640025538514
          ],
          [
            8.926922289007978,
            55.296400744266414
          ],
          [
            8.926932112741166,
            55.29640701247576
          ],
          [
            8.927082426473264,
            55.29650292074815
          ],
          [
            8.927165199515366,
            55.2965394532281
          ],
          [
            8.927144941612912,
            55.296554867385545
          ],
          [
            8.927048020461665,
            55.296628614119754
          ],
          [
            8.926915192451421,
            55.29674867731952
          ],
          [
            8.92685116936201,
            55.29679302975487
          ],
          [
            8.926958816883724,
            55.29683478913702
          ],
          [
            8.927106541026488,
            55.297008306863646
          ],
          [
            8.927115395972722,
            55.297019082747255
          ],
          [
            8.927125083775447,
            55.29703087274599
          ],
          [
            8.927235828291916,
            55.29716657769047
          ],
          [
            8.92725472447038,
            55.297189732344876
          ],
          [
            8.927321678838215,
            55.297265074738604
          ],
          [
            8.927567278948397,
            55.29731428409092
          ],
          [
            8.927458377203784,
            55.297354656387135
          ],
          [
            8.92738134029741,
            55.297453186842134
          ],
          [
            8.927280429985792,
            55.297601665099116
          ],
          [
            8.927207182634465,
            55.29778044251776
          ],
          [
            8.927169278083145,
            55.297924105776225
          ],
          [
            8.92717898161417,
            55.29804353526045
          ],
          [
            8.927194859530523,
            55.29808100458731
          ],
          [
            8.927219127319216,
            55.298138271434375
          ],
          [
            8.927184741547746,
            55.298252372906866
          ],
          [
            8.927104683575545,
            55.298365189082936
          ],
          [
            8.92697748157605,
            55.29850610315134
          ],
          [
            8.926903307936172,
            55.29858738191543
          ],
          [
            8.92679673606018,
            55.298728757433565
          ],
          [
            8.926727026614932,
            55.29886566198324
          ],
          [
            8.926681834758961,
            55.29894534051344
          ],
          [
            8.926620150139575,
            55.29900065711249
          ],
          [
            8.926483899066612,
            55.299093040923665
          ],
          [
            8.926405865303085,
            55.299131364069964
          ],
          [
            8.926280438643545,
            55.29916157119107
          ],
          [
            8.926193675738133,
            55.29915073562156
          ],
          [
            8.926045688404008,
            55.29911658924949
          ],
          [
            8.925901865664136,
            55.29904524326561
          ],
          [
            8.925841008074281,
            55.298994255824475
          ],
          [
            8.925838565308968,
            55.298992532627594
          ],
          [
            8.925810650459123,
            55.298972850756755
          ],
          [
            8.925789245718862,
            55.29896466051223
          ],
          [
            8.925762006610489,
            55.29896015097025
          ],
          [
            8.925659159133218,
            55.29896008842053
          ],
          [
            8.925585448981572,
            55.298960133398076
          ],
          [
            8.925560238893375,
            55.298965509625745
          ],
          [
            8.925540368148958,
            55.29897924606486
          ],
          [
            8.925527745088043,
            55.29899154916284
          ],
          [
            8.925493380265014,
            55.29900743339202
          ],
          [
            8.92541852353254,
            55.29903093097848
          ],
          [
            8.925380361254787,
            55.29905606841695
          ],
          [
            8.92530624747031,
            55.29910319951666
          ],
          [
            8.925328750639382,
            55.299113547152345
          ],
          [
            8.925417475446801,
            55.29916985359444
          ],
          [
            8.925461496158507,
            55.29921229429105
          ],
          [
            8.925485636394576,
            55.2992635416865
          ],
          [
            8.925485968973426,
            55.29926424818742
          ],
          [
            8.925489521503028,
            55.29938565094414
          ],
          [
            8.925489377694818,
            55.299462391124315
          ],
          [
            8.925512458768383,
            55.299500685475046
          ],
          [
            8.925546683755856,
            55.299527739761885
          ],
          [
            8.925573322093884,
            55.29954879756546
          ],
          [
            8.925730232542403,
            55.299612783384845
          ],
          [
            8.92595125901955,
            55.299670427840596
          ],
          [
            8.926226175842679,
            55.29971534436403
          ],
          [
            8.926298070298902,
            55.29972183160949
          ],
          [
            8.926534988008273,
            55.299743207297794
          ],
          [
            8.926881303054836,
            55.299762016066055
          ],
          [
            8.92699011000809,
            55.299777177593285
          ],
          [
            8.92706568369031,
            55.29979240904497
          ],
          [
            8.927102180130175,
            55.29981660311473
          ],
          [
            8.92710843908039,
            55.29983907179764
          ],
          [
            8.92710744710889,
            55.299864681246106
          ],
          [
            8.927101257515504,
            55.2998902875927
          ],
          [
            8.927026130582739,
            55.29997480079705
          ],
          [
            8.927003100685265,
            55.29999347787292
          ],
          [
            8.926995045276211,
            55.29999999999999
          ]
        ]
      }
    }
  ]
}
