{
  "type": "FeatureCollection",
  "name": "german-denmark-1914-hvidding-0718-west-candidate",
  "features": [
    {
      "type": "Feature",
      "id": "land-border:deu-dnk:1914:north-schleswig:0718-west-stage1",
      "properties": {
        "referenceDate": "1914-07-31",
        "source": "1914 north-schleswig 1–26 candidate, clipped at 50% 0718 length",
        "sourceSheet": "0718 Hvidding, 1880 1:25,000",
        "status": "provisional-modern-parish-only",
        "historicalMapTraced": false,
        "doNotTreatAsFinal": true,
        "lengthKm": 5.94054
      },
      "geometry": {
        "type": "LineString",
        "coordinates": [
          [
            8.666666666666666,
            55.27688120496713
          ],
          [
            8.669090703611719,
            55.27717465213132
          ],
          [
            8.670765790428701,
            55.27737956903589
          ],
          [
            8.671991490698002,
            55.27752475741773
          ],
          [
            8.6744296027268,
            55.27780715406465
          ],
          [
            8.676709683282779,
            55.27807236962989
          ],
          [
            8.678869447302572,
            55.27832779086907
          ],
          [
            8.678960076116441,
            55.278333330937656
          ],
          [
            8.680649286099959,
            55.278536531728115
          ],
          [
            8.68155639542986,
            55.27864772171761
          ],
          [
            8.6820180294853,
            55.2786971797719
          ],
          [
            8.682312867674515,
            55.2787182556381
          ],
          [
            8.682594828754226,
            55.27873543331838
          ],
          [
            8.683373741418768,
            55.278775735978094
          ],
          [
            8.685552378041695,
            55.27888425567619
          ],
          [
            8.687005420168422,
            55.27893893950094
          ],
          [
            8.687083625359683,
            55.27894318364574
          ],
          [
            8.687146409204273,
            55.2789466693489
          ],
          [
            8.68722714513028,
            55.27894939225602
          ],
          [
            8.687360382636728,
            55.27894191557104
          ],
          [
            8.687543499104994,
            55.27891740301053
          ],
          [
            8.687958617692042,
            55.278857449145285
          ],
          [
            8.688810919124352,
            55.278733819269796
          ],
          [
            8.690020385970628,
            55.278592040163254
          ],
          [
            8.69010342739504,
            55.278581647382836
          ],
          [
            8.69018158464882,
            55.278571781317844
          ],
          [
            8.691919665431298,
            55.27836788185934
          ],
          [
            8.69242908550417,
            55.27830536500314
          ],
          [
            8.69367008991009,
            55.27815320537953
          ],
          [
            8.694104328716676,
            55.278107563728994
          ],
          [
            8.694493423504959,
            55.27806666546384
          ],
          [
            8.694812137627698,
            55.2780331356758
          ],
          [
            8.694975335312812,
            55.27801844685567
          ],
          [
            8.695172606557895,
            55.278014985583624
          ],
          [
            8.695483229655562,
            55.2779895212959
          ],
          [
            8.695839393305093,
            55.277957879420164
          ],
          [
            8.696073962987697,
            55.277935009852655
          ],
          [
            8.69763220613013,
            55.277753046552704
          ],
          [
            8.697907639283658,
            55.27771769416529
          ],
          [
            8.697932194475467,
            55.27771793462929
          ],
          [
            8.698282094696928,
            55.27768132781057
          ],
          [
            8.698631291806443,
            55.277654333331334
          ],
          [
            8.698887218409038,
            55.277617043522845
          ],
          [
            8.699203016604157,
            55.27757262196747
          ],
          [
            8.699452349122826,
            55.2775328884982
          ],
          [
            8.699666564563213,
            55.277515713010445
          ],
          [
            8.699781613841395,
            55.27751860186759
          ],
          [
            8.700107478522659,
            55.27751679661297
          ],
          [
            8.700505115926127,
            55.277537092505646
          ],
          [
            8.70089617687081,
            55.277573725610424
          ],
          [
            8.701844098754453,
            55.2776717137388
          ],
          [
            8.701950363971863,
            55.27768269800234
          ],
          [
            8.702346010373631,
            55.277728759526845
          ],
          [
            8.702812300109098,
            55.2777830441114
          ],
          [
            8.70327088751355,
            55.27783643026039
          ],
          [
            8.703695607402427,
            55.27789874642077
          ],
          [
            8.704019087125268,
            55.277942843658195
          ],
          [
            8.70407289157861,
            55.27794719750027
          ],
          [
            8.705802789296651,
            55.27815536071235
          ],
          [
            8.70773696551118,
            55.27839445116992
          ],
          [
            8.709677783822084,
            55.27863253827986
          ],
          [
            8.710845329761556,
            55.2787897786039
          ],
          [
            8.711839985733159,
            55.27893222222804
          ],
          [
            8.712258014447468,
            55.27898721407828
          ],
          [
            8.712572767206243,
            55.27902156313246
          ],
          [
            8.71284079372173,
            55.27903028113343
          ],
          [
            8.713270143301099,
            55.27902194450579
          ],
          [
            8.71396654713232,
            55.279026183619315
          ],
          [
            8.715218113678043,
            55.279017426867256
          ],
          [
            8.715739827248612,
            55.27901429945009
          ],
          [
            8.716481005574822,
            55.27900985176908
          ],
          [
            8.716753510356957,
            55.27900877678839
          ],
          [
            8.717035039141344,
            55.27900053327331
          ],
          [
            8.71717882287603,
            55.278992419474804
          ],
          [
            8.7174128417279,
            55.27895755621273
          ],
          [
            8.718305127524031,
            55.278799037121864
          ],
          [
            8.718400816916681,
            55.27880222321198
          ],
          [
            8.718879959264184,
            55.278719756938216
          ],
          [
            8.721288212724836,
            55.278355501357694
          ],
          [
            8.72304831055973,
            55.2780623373033
          ],
          [
            8.72322566179079,
            55.27802553716785
          ],
          [
            8.725197424054738,
            55.27771422059469
          ],
          [
            8.725312605476592,
            55.27769830485708
          ],
          [
            8.725537642629487,
            55.277639772531245
          ],
          [
            8.72561286537162,
            55.27762017227605
          ],
          [
            8.72563491817558,
            55.277618065174714
          ],
          [
            8.726202507415826,
            55.27756410457347
          ],
          [
            8.726237901948169,
            55.277560739576124
          ],
          [
            8.726796717890188,
            55.27744768857304
          ],
          [
            8.726930585665935,
            55.277438283067916
          ],
          [
            8.727093193766288,
            55.27741564230209
          ],
          [
            8.728230742014098,
            55.27726793255982
          ],
          [
            8.728445950170746,
            55.27724163290602
          ],
          [
            8.729147904029084,
            55.27714811231962
          ],
          [
            8.729346049470738,
            55.277121713027356
          ],
          [
            8.729441083123088,
            55.27710905111261
          ],
          [
            8.729542716976782,
            55.277094089835515
          ],
          [
            8.729729555052911,
            55.27707275726925
          ],
          [
            8.72983985488758,
            55.2770565568784
          ],
          [
            8.72996197269683,
            55.277038585313164
          ],
          [
            8.729890357695988,
            55.276925807514786
          ],
          [
            8.729732088424324,
            55.276676568125566
          ],
          [
            8.729754732356195,
            55.27663366494056
          ],
          [
            8.729780087595882,
            55.276585555844235
          ],
          [
            8.72951619583863,
            55.27613252416706
          ],
          [
            8.729422508488202,
            55.275974611487634
          ],
          [
            8.72938251932133,
            55.27595250705773
          ],
          [
            8.72933170944069,
            55.275924447839344
          ],
          [
            8.729137327823928,
            55.27557472916519
          ],
          [
            8.728696482505384,
            55.27478163034351
          ],
          [
            8.72895849828448,
            55.27474474038073
          ],
          [
            8.729565087136407,
            55.27465936991085
          ],
          [
            8.729711569142406,
            55.27476114672389
          ],
          [
            8.730104595723713,
            55.27504166187132
          ],
          [
            8.73015126378255,
            55.275076900458586
          ],
          [
            8.730242397708848,
            55.275147192992925
          ],
          [
            8.730300167681271,
            55.27526306089689
          ],
          [
            8.73031149197172,
            55.27528761781815
          ],
          [
            8.73045785853493,
            55.27556974343852
          ],
          [
            8.730474016902054,
            55.27567078227567
          ],
          [
            8.730544579282059,
            55.27566437818617
          ],
          [
            8.730602587329631,
            55.275675559012306
          ],
          [
            8.730849874887323,
            55.27562919714879
          ],
          [
            8.731413702466693,
            55.27651682220522
          ],
          [
            8.7315928753133,
            55.27681456440434
          ],
          [
            8.731653372531632,
            55.2768070592241
          ],
          [
            8.731751680992975,
            55.27679478461549
          ],
          [
            8.732245584758777,
            55.27673323584303
          ],
          [
            8.733187364985152,
            55.27661883807377
          ],
          [
            8.73560404806345,
            55.27629727205228
          ],
          [
            8.736494014528867,
            55.27618372506328
          ],
          [
            8.736818662903117,
            55.27617346221138
          ],
          [
            8.737228456741713,
            55.276117552920084
          ],
          [
            8.737488260866927,
            55.27608198780941
          ],
          [
            8.737594293548446,
            55.276067478593404
          ],
          [
            8.738540955456598,
            55.27594801786258
          ],
          [
            8.739178646742701,
            55.27587094059684
          ],
          [
            8.742232266910438,
            55.27550180083808
          ],
          [
            8.743742352467397,
            55.27529497530666
          ],
          [
            8.747918611186961,
            55.27475821513221
          ],
          [
            8.750075747070698,
            55.274472939143315
          ],
          [
            8.750261798203894,
            55.27444861174032
          ]
        ]
      }
    }
  ]
}
