{
  "type": "FeatureCollection",
  "features": [
    {
      "type": "Feature",
      "id": 7628,
      "geometry": {
        "type": "Polygon",
        "coordinates": [
          [
            [
              8.824587191296343,
              55.31531741452635
            ],
            [
              8.822834250045826,
              55.31547931943965
            ],
            [
              8.82295356025387,
              55.31536584684561
            ],
            [
              8.822858560255428,
              55.315274807084336
            ],
            [
              8.822827244056155,
              55.315244802455474
            ],
            [
              8.822728684358587,
              55.3152419097842
            ],
            [
              8.822401125476869,
              55.315262443270925
            ],
            [
              8.82225446344024,
              55.31541756144831
            ],
            [
              8.822098567969283,
              55.315607630405474
            ],
            [
              8.821738404660492,
              55.315712591726324
            ],
            [
              8.821552196356334,
              55.31569764581266
            ],
            [
              8.82150105328799,
              55.31570748262736
            ],
            [
              8.82112636638328,
              55.31577947836469
            ],
            [
              8.820841673151186,
              55.31591252981569
            ],
            [
              8.820744112839865,
              55.31593226367835
            ],
            [
              8.820411624583851,
              55.315999565552
            ],
            [
              8.820094702307328,
              55.315997400950835
            ],
            [
              8.819711031566184,
              55.3158986007918
            ],
            [
              8.819521303706217,
              55.31582246113013
            ],
            [
              8.819389053339792,
              55.315806055012985
            ],
            [
              8.819049122311158,
              55.31582932890424
            ],
            [
              8.818677707999923,
              55.3158907904266
            ],
            [
              8.81825546032834,
              55.31593866031709
            ],
            [
              8.817699415214188,
              55.31595339560853
            ],
            [
              8.817303509338208,
              55.315953657905375
            ],
            [
              8.816707041720383,
              55.315945737503235
            ],
            [
              8.816448011862851,
              55.31606947181534
            ],
            [
              8.816345693684761,
              55.31618054637674
            ],
            [
              8.816094320023991,
              55.31651174150892
            ],
            [
              8.81597711274932,
              55.31664929296258
            ],
            [
              8.815841430827453,
              55.31677464945579
            ],
            [
              8.81558815609591,
              55.316865268331895
            ],
            [
              8.815435360112355,
              55.316898986598886
            ],
            [
              8.815202198614166,
              55.316950447251024
            ],
            [
              8.814832780319916,
              55.31694185448732
            ],
            [
              8.814680760256671,
              55.316890089475336
            ],
            [
              8.814179645294113,
              55.31699587498623
            ],
            [
              8.813631312080325,
              55.317257672683304
            ],
            [
              8.813538874716675,
              55.31732591486004
            ],
            [
              8.813047840612194,
              55.317688574983116
            ],
            [
              8.81290350717416,
              55.317841465938265
            ],
            [
              8.812110163205771,
              55.31838128456462
            ],
            [
              8.811099719110874,
              55.31859565929993
            ],
            [
              8.810295281164041,
              55.31872130377077
            ],
            [
              8.809589473239017,
              55.31878645040884
            ],
            [
              8.809390145379028,
              55.31879759671754
            ],
            [
              8.808733115127575,
              55.318801799786264
            ],
            [
              8.808285820172083,
              55.31879341576075
            ],
            [
              8.808184397076921,
              55.31878797282917
            ],
            [
              8.807798633383944,
              55.3187673009416
            ],
            [
              8.807124835987565,
              55.318502294353884
            ],
            [
              8.806615010292159,
              55.31831415802788
            ],
            [
              8.80601207355165,
              55.31813652013872
            ],
            [
              8.805665812040555,
              55.31805016288046
            ],
            [
              8.8052446397907,
              55.318031466410375
            ],
            [
              8.8050351955614,
              55.318084877452655
            ],
            [
              8.804738224436761,
              55.31818488430605
            ],
            [
              8.804419091879467,
              55.318439485494125
            ],
            [
              8.80373465263258,
              55.31921482943257
            ],
            [
              8.803373666025307,
              55.31944423585973
            ],
            [
              8.802601938403294,
              55.31964786254366
            ],
            [
              8.802362162195571,
              55.31974265428096
            ],
            [
              8.802062619353874,
              55.31983944247016
            ],
            [
              8.801665133476428,
              55.319977945578486
            ],
            [
              8.801278101185188,
              55.3201115940018
            ],
            [
              8.801133151664274,
              55.32023507694137
            ],
            [
              8.801206330856445,
              55.320358537385175
            ],
            [
              8.801466886927058,
              55.32056574605683
            ],
            [
              8.801751745795427,
              55.320747653177754
            ],
            [
              8.80201191052157,
              55.32101866037965
            ],
            [
              8.801886397571439,
              55.321200791130714
            ],
            [
              8.801685860615617,
              55.321306068860316
            ],
            [
              8.801472824517298,
              55.32140213331128
            ],
            [
              8.80090976241928,
              55.3215772791415
            ],
            [
              8.800360033851362,
              55.3217041266375
            ],
            [
              8.799645920022467,
              55.32198378709279
            ],
            [
              8.799216388140195,
              55.32236730382416
            ],
            [
              8.799022133504408,
              55.322511631502856
            ],
            [
              8.798698528394102,
              55.322561788615864
            ],
            [
              8.796946541192543,
              55.320033276514984
            ],
            [
              8.796852231992368,
              55.319909059494385
            ],
            [
              8.796822921024908,
              55.31979204941338
            ],
            [
              8.796635628546928,
              55.319525196067836
            ],
            [
              8.796537231135868,
              55.31929196321418
            ],
            [
              8.796483594702408,
              55.319109647443696
            ],
            [
              8.796384632974275,
              55.318839310446194
            ],
            [
              8.796169775684271,
              55.318454963784866
            ],
            [
              8.795199188009695,
              55.31711050431467
            ],
            [
              8.79502652965159,
              55.31681542998484
            ],
            [
              8.794790757590661,
              55.31612859579796
            ],
            [
              8.794649520098137,
              55.315773574308615
            ],
            [
              8.794644053864522,
              55.315599524788404
            ],
            [
              8.794708854935022,
              55.315399390252296
            ],
            [
              8.79467466060899,
              55.31525961886902
            ],
            [
              8.794652784409193,
              55.31501993515678
            ],
            [
              8.79474671079634,
              55.31486999126974
            ],
            [
              8.794774749132687,
              55.31472203936742
            ],
            [
              8.794799210692801,
              55.31439709368155
            ],
            [
              8.794868952694223,
              55.314020644507046
            ],
            [
              8.794915196674737,
              55.31356572622615
            ],
            [
              8.794919297960075,
              55.313531217974905
            ],
            [
              8.794929128529537,
              55.31344898583244
            ],
            [
              8.794983231955621,
              55.31337606557361
            ],
            [
              8.795112109253258,
              55.31288803769351
            ],
            [
              8.79512324521573,
              55.31284587619019
            ],
            [
              8.795134542043632,
              55.31280306796492
            ],
            [
              8.795182173866241,
              55.31268940332237
            ],
            [
              8.79520789531527,
              55.31266635247804
            ],
            [
              8.795260540126316,
              55.31256737030759
            ],
            [
              8.796264075590427,
              55.3092495280301
            ],
            [
              8.79624271736669,
              55.30903048603758
            ],
            [
              8.796256557575504,
              55.30899201316948
            ],
            [
              8.797098312358102,
              55.30665239440361
            ],
            [
              8.797313562896624,
              55.306059164405724
            ],
            [
              8.797687472779685,
              55.30502845340713
            ],
            [
              8.797898152559144,
              55.30444775910703
            ],
            [
              8.79808190729261,
              55.30394124416986
            ],
            [
              8.798620331352074,
              55.302457099084926
            ],
            [
              8.798777518453408,
              55.302023810935665
            ],
            [
              8.798802278308685,
              55.30195555817379
            ],
            [
              8.798953391696928,
              55.30153894675169
            ],
            [
              8.799140042470567,
              55.30102439230495
            ],
            [
              8.799342293618407,
              55.30046687416114
            ],
            [
              8.799677572884136,
              55.29954245100067
            ],
            [
              8.80022042944716,
              55.29804568881753
            ],
            [
              8.800255734875686,
              55.29788685613044
            ],
            [
              8.800283901223592,
              55.29776022656262
            ],
            [
              8.800922462507224,
              55.294889064537486
            ],
            [
              8.801286662884117,
              55.29492014709973
            ],
            [
              8.801586658588398,
              55.29489417101103
            ],
            [
              8.802292941122461,
              55.294923316657936
            ],
            [
              8.807065153358783,
              55.294846847954126
            ],
            [
              8.811998234938619,
              55.29467986163389
            ],
            [
              8.812129296419192,
              55.29403235229427
            ],
            [
              8.812747741048883,
              55.29452703783722
            ],
            [
              8.813158756900842,
              55.29457366659651
            ],
            [
              8.813098432471174,
              55.29463912718182
            ],
            [
              8.813275688057448,
              55.294630681865875
            ],
            [
              8.81623170626441,
              55.294536381953954
            ],
            [
              8.81631110577313,
              55.29453369775518
            ],
            [
              8.81658586324646,
              55.29452065860642
            ],
            [
              8.81735820886219,
              55.29448577309712
            ],
            [
              8.818891898085552,
              55.29444144642783
            ],
            [
              8.819811591662566,
              55.29440759051159
            ],
            [
              8.820760056562992,
              55.29436654515149
            ],
            [
              8.821241802246172,
              55.2943192838768
            ],
            [
              8.822369799008513,
              55.29429800622713
            ],
            [
              8.822647962579879,
              55.29426901723365
            ],
            [
              8.822985138950004,
              55.29426371038097
            ],
            [
              8.823824606957153,
              55.294246898177235
            ],
            [
              8.82452032717338,
              55.2942046141245
            ],
            [
              8.825207032011093,
              55.294199515247016
            ],
            [
              8.825607482626207,
              55.2942015883202
            ],
            [
              8.825794739715294,
              55.29419175527489
            ],
            [
              8.826593946318358,
              55.29413307272704
            ],
            [
              8.828713272285434,
              55.29408401624785
            ],
            [
              8.830279425377022,
              55.29403136095475
            ],
            [
              8.831806018513285,
              55.2939704628404
            ],
            [
              8.83476460097205,
              55.29385796166316
            ],
            [
              8.835856443229162,
              55.2938157259459
            ],
            [
              8.836075516171068,
              55.29380363745032
            ],
            [
              8.836244873664809,
              55.293795112262096
            ],
            [
              8.83727359336648,
              55.2938301846229
            ],
            [
              8.838318728260147,
              55.2938642815884
            ],
            [
              8.839249025307382,
              55.29388792955819
            ],
            [
              8.841245154143694,
              55.29391848680031
            ],
            [
              8.8420581030196,
              55.29393734198965
            ],
            [
              8.842930083161528,
              55.29395447049429
            ],
            [
              8.843919243567349,
              55.29396000685742
            ],
            [
              8.844653939668092,
              55.293975536745904
            ],
            [
              8.845509793314656,
              55.29399328229868
            ],
            [
              8.846355787297172,
              55.29400342527063
            ],
            [
              8.8460601219602,
              55.29453925637068
            ],
            [
              8.84502606034121,
              55.296434074464855
            ],
            [
              8.84489670258202,
              55.296671077585664
            ],
            [
              8.844783840376394,
              55.29686576851307
            ],
            [
              8.84409616257222,
              55.29805196919257
            ],
            [
              8.844056250618644,
              55.298120822822504
            ],
            [
              8.84324182335089,
              55.29964554750346
            ],
            [
              8.842967370068273,
              55.30010923142515
            ],
            [
              8.842825471312667,
              55.30034895682871
            ],
            [
              8.84258034642197,
              55.30138291030511
            ],
            [
              8.842508230731614,
              55.30168703790374
            ],
            [
              8.841799587014581,
              55.301730890388626
            ],
            [
              8.841184384077206,
              55.301800703978124
            ],
            [
              8.84115387603101,
              55.301804159858776
            ],
            [
              8.840049593290315,
              55.30195699030006
            ],
            [
              8.839421592510725,
              55.302027110736795
            ],
            [
              8.839603436960877,
              55.30232084091539
            ],
            [
              8.841146014692068,
              55.30481233343511
            ],
            [
              8.841632268320039,
              55.30560456677649
            ],
            [
              8.842305273674869,
              55.3064016311146
            ],
            [
              8.843409194341659,
              55.30765348587817
            ],
            [
              8.841911733262714,
              55.308100757236616
            ],
            [
              8.842402015803254,
              55.308689459921844
            ],
            [
              8.841738282822206,
              55.30894418997853
            ],
            [
              8.841519329868385,
              55.309028176612046
            ],
            [
              8.840987666370351,
              55.30923215032019
            ],
            [
              8.838155901581194,
              55.31031846632305
            ],
            [
              8.83915326188689,
              55.311419190313394
            ],
            [
              8.839418696295741,
              55.31120994169345
            ],
            [
              8.83968927641743,
              55.31092730182078
            ],
            [
              8.840141756656308,
              55.31051524088611
            ],
            [
              8.840616114951853,
              55.310153123881676
            ],
            [
              8.841083843728736,
              55.30988264434403
            ],
            [
              8.841287380740388,
              55.30980606987305
            ],
            [
              8.842713971652909,
              55.31284229772026
            ],
            [
              8.842372271517538,
              55.31290835350756
            ],
            [
              8.841532375203254,
              55.313062203064845
            ],
            [
              8.840823174424784,
              55.31317454926058
            ],
            [
              8.84048145306887,
              55.313228693323424
            ],
            [
              8.839041630062255,
              55.313498441757304
            ],
            [
              8.838480428008348,
              55.31360998977672
            ],
            [
              8.837756377534642,
              55.31372741155581
            ],
            [
              8.837406723552224,
              55.313815835927436
            ],
            [
              8.837367312545188,
              55.313824868285955
            ],
            [
              8.837361587770276,
              55.31382618160265
            ],
            [
              8.837353560509515,
              55.313828013040066
            ],
            [
              8.83659134262655,
              55.31400269859168
            ],
            [
              8.836344082424159,
              55.314075729076954
            ],
            [
              8.836062541602457,
              55.314158894169786
            ],
            [
              8.835459801502743,
              55.31439674224015
            ],
            [
              8.835006642793639,
              55.314619693002136
            ],
            [
              8.834680994993313,
              55.31481233428125
            ],
            [
              8.834567000952598,
              55.314879763441795
            ],
            [
              8.834209542880144,
              55.31518799180745
            ],
            [
              8.834178738648953,
              55.31521072942948
            ],
            [
              8.833952107837124,
              55.31537794701176
            ],
            [
              8.833680731763446,
              55.31523894239058
            ],
            [
              8.83360441005474,
              55.31521948269671
            ],
            [
              8.829767512733863,
              55.31485675303812
            ],
            [
              8.829539766599357,
              55.31487606983913
            ],
            [
              8.827394490501959,
              55.315058096973836
            ],
            [
              8.825850098981123,
              55.31520076815983
            ],
            [
              8.824587191296343,
              55.31531741452635
            ]
          ]
        ]
      },
      "properties": {
        "OBJECTID": 7628,
        "ejerlavskode": "1300755",
        "ejerlavsnavn": "Seem By, Seem",
        "lokalid": "1300755",
        "virkningfra": "2023-04-13T07:20:02.353000+02:00"
      }
    }
  ]
}
